{
  "type": "FeatureCollection",
  "features": [
    {
      "type": "Feature",
      "properties": {
        "norad_id": 66990,
        "name": "TJS-22",
        "group": "last-30-days",
        "lat": 1.9836040229892165,
        "lon": 17.09278346994632,
        "alt_km": 35791.35321110763,
        "timestamp": "2025-12-19T14:48:34.967008+00:00",
        "meta_object_name": "TJS-22",
        "meta_object_id": "2025-290A",
        "meta_epoch": "2025-12-18T08:47:47.925024",
        "meta_mean_motion": 1.00270336,
        "meta_eccentricity": 0.00034462,
        "meta_inclination": 1.9746,
        "meta_ra_of_asc_node": 285.0171,
        "meta_arg_of_pericenter": 341.282,
        "meta_mean_anomaly": 19.3488,
        "meta_ephemeris_type": 0,
        "meta_classification_type": "U",
        "meta_norad_cat_id": 66990,
        "meta_element_set_no": 999,
        "meta_rev_at_epoch": 21,
        "meta_bstar": 0,
        "meta_mean_motion_dot": 2.1e-07,
        "meta_mean_motion_ddot": 0,
        "tle_line1": "1 66990U 25290A   25352.36652691  .00000021  00000+0  00000+0 0  9994",
        "tle_line2": "2 66990   1.9746 285.0171 0003446 341.2820  19.3488  1.00270336   218"
      },
      "geometry": {
        "type": "Point",
        "coordinates": [
          17.09278346994632,
          1.9836040229892165
        ]
      }
    },
    {
      "type": "Feature",
      "properties": {
        "norad_id": 66991,
        "name": "CZ-3B R/B",
        "group": "last-30-days",
        "lat": 13.729017667946287,
        "lon": -34.31937177395803,
        "alt_km": 26469.18427832895,
        "timestamp": "2025-12-19T14:48:34.967020+00:00",
        "meta_object_name": "CZ-3B R/B",
        "meta_object_id": "2025-290B",
        "meta_epoch": "2025-12-15T17:23:33.043200",
        "meta_mean_motion": 2.38388611,
        "meta_eccentricity": 0.7240884,
        "meta_inclination": 28.4636,
        "meta_ra_of_asc_node": 300.4666,
        "meta_arg_of_pericenter": 182.7002,
        "meta_mean_anomaly": 168.625,
        "meta_ephemeris_type": 0,
        "meta_classification_type": "U",
        "meta_norad_cat_id": 66991,
        "meta_element_set_no": 999,
        "meta_rev_at_epoch": 16,
        "meta_bstar": 0.00075879,
        "meta_mean_motion_dot": 0.00057911,
        "meta_mean_motion_ddot": -2.0514e-07,
        "tle_line1": "1 66991U 25290B   25349.72468800  .00057911 -20514-6  75879-3 0  9998",
        "tle_line2": "2 66991  28.4636 300.4666 7240884 182.7002 168.6250  2.38388611   165"
      },
      "geometry": {
        "type": "Point",
        "coordinates": [
          -34.31937177395803,
          13.729017667946287
        ]
      }
    },
    {
      "type": "Feature",
      "properties": {
        "norad_id": 66993,
        "name": "2025-292A",
        "group": "last-30-days",
        "lat": 37.17770156136526,
        "lon": -108.04497720247784,
        "alt_km": 552.7198293264983,
        "timestamp": "2025-12-19T14:48:34.967031+00:00",
        "meta_object_name": "2025-292A",
        "meta_object_id": "2025-292A",
        "meta_epoch": "2025-12-19T06:11:49.058016",
        "meta_mean_motion": 15.04540227,
        "meta_eccentricity": 0.00138954,
        "meta_inclination": 97.6528,
        "meta_ra_of_asc_node": 65.7466,
        "meta_arg_of_pericenter": 248.2172,
        "meta_mean_anomaly": 111.7576,
        "meta_ephemeris_type": 0,
        "meta_classification_type": "U",
        "meta_norad_cat_id": 66993,
        "meta_element_set_no": 999,
        "meta_rev_at_epoch": 137,
        "meta_bstar": 0.00020705591,
        "meta_mean_motion_dot": 2.845e-05,
        "meta_mean_motion_ddot": 0,
        "tle_line1": "1 66993U 25292A   25353.25820669  .00002845  00000+0  20706-3 0  9995",
        "tle_line2": "2 66993  97.6528  65.7466 0013895 248.2172 111.7576 15.04540227  1377"
      },
      "geometry": {
        "type": "Point",
        "coordinates": [
          -108.04497720247784,
          37.17770156136526
        ]
      }
    },
    {
      "type": "Feature",
      "properties": {
        "norad_id": 66994,
        "name": "2025-292B",
        "group": "last-30-days",
        "lat": 35.684368569066336,
        "lon": -108.35455366600107,
        "alt_km": 552.5986042007589,
        "timestamp": "2025-12-19T14:48:34.967041+00:00",
        "meta_object_name": "2025-292B",
        "meta_object_id": "2025-292B",
        "meta_epoch": "2025-12-19T06:11:25.834560",
        "meta_mean_motion": 15.04581174,
        "meta_eccentricity": 0.00136595,
        "meta_inclination": 97.6537,
        "meta_ra_of_asc_node": 65.7478,
        "meta_arg_of_pericenter": 248.5509,
        "meta_mean_anomaly": 111.4261,
        "meta_ephemeris_type": 0,
        "meta_classification_type": "U",
        "meta_norad_cat_id": 66994,
        "meta_element_set_no": 999,
        "meta_rev_at_epoch": 137,
        "meta_bstar": 0.00024454567,
        "meta_mean_motion_dot": 3.376e-05,
        "meta_mean_motion_ddot": 0,
        "tle_line1": "1 66994U 25292B   25353.25793790  .00003376  00000+0  24455-3 0  9995",
        "tle_line2": "2 66994  97.6537  65.7478 0013659 248.5509 111.4261 15.04581174  1370"
      },
      "geometry": {
        "type": "Point",
        "coordinates": [
          -108.35455366600107,
          35.684368569066336
        ]
      }
    },
    {
      "type": "Feature",
      "properties": {
        "norad_id": 66995,
        "name": "2025-292C",
        "group": "last-30-days",
        "lat": 35.28740248529453,
        "lon": -108.43685104491051,
        "alt_km": 552.6276677620617,
        "timestamp": "2025-12-19T14:48:34.967053+00:00",
        "meta_object_name": "2025-292C",
        "meta_object_id": "2025-292C",
        "meta_epoch": "2025-12-19T06:11:19.847040",
        "meta_mean_motion": 15.04607318,
        "meta_eccentricity": 0.00139633,
        "meta_inclination": 97.6528,
        "meta_ra_of_asc_node": 65.747,
        "meta_arg_of_pericenter": 248.9447,
        "meta_mean_anomaly": 111.0286,
        "meta_ephemeris_type": 0,
        "meta_classification_type": "U",
        "meta_norad_cat_id": 66995,
        "meta_element_set_no": 999,
        "meta_rev_at_epoch": 137,
        "meta_bstar": 0.00027218059,
        "meta_mean_motion_dot": 3.767e-05,
        "meta_mean_motion_ddot": 0,
        "tle_line1": "1 66995U 25292C   25353.25786860  .00003767  00000+0  27218-3 0  9990",
        "tle_line2": "2 66995  97.6528  65.7470 0013963 248.9447 111.0286 15.04607318  1378"
      },
      "geometry": {
        "type": "Point",
        "coordinates": [
          -108.43685104491051,
          35.28740248529453
        ]
      }
    },
    {
      "type": "Feature",
      "properties": {
        "norad_id": 66996,
        "name": "2025-292D",
        "group": "last-30-days",
        "lat": 33.75638427642204,
        "lon": -108.74197954925191,
        "alt_km": 552.8246034201838,
        "timestamp": "2025-12-19T14:48:34.967063+00:00",
        "meta_object_name": "2025-292D",
        "meta_object_id": "2025-292D",
        "meta_epoch": "2025-12-19T06:10:55.998912",
        "meta_mean_motion": 15.04637815,
        "meta_eccentricity": 0.0013126,
        "meta_inclination": 97.6521,
        "meta_ra_of_asc_node": 65.7467,
        "meta_arg_of_pericenter": 251.6473,
        "meta_mean_anomaly": 108.3325,
        "meta_ephemeris_type": 0,
        "meta_classification_type": "U",
        "meta_norad_cat_id": 66996,
        "meta_element_set_no": 999,
        "meta_rev_at_epoch": 137,
        "meta_bstar": 0.0001782249,
        "meta_mean_motion_dot": 2.446e-05,
        "meta_mean_motion_ddot": 0,
        "tle_line1": "1 66996U 25292D   25353.25759258  .00002446  00000+0  17822-3 0  9995",
        "tle_line2": "2 66996  97.6521  65.7467 0013126 251.6473 108.3325 15.04637815  1377"
      },
      "geometry": {
        "type": "Point",
        "coordinates": [
          -108.74197954925191,
          33.75638427642204
        ]
      }
    },
    {
      "type": "Feature",
      "properties": {
        "norad_id": 66997,
        "name": "2025-292E",
        "group": "last-30-days",
        "lat": 31.049149510368753,
        "lon": -109.2497773803262,
        "alt_km": 552.7601254292786,
        "timestamp": "2025-12-19T14:48:34.967073+00:00",
        "meta_object_name": "2025-292E",
        "meta_object_id": "2025-292E",
        "meta_epoch": "2025-12-19T06:10:13.915200",
        "meta_mean_motion": 15.04723396,
        "meta_eccentricity": 0.00134879,
        "meta_inclination": 97.6543,
        "meta_ra_of_asc_node": 65.7496,
        "meta_arg_of_pericenter": 252.5124,
        "meta_mean_anomaly": 107.4629,
        "meta_ephemeris_type": 0,
        "meta_classification_type": "U",
        "meta_norad_cat_id": 66997,
        "meta_element_set_no": 999,
        "meta_rev_at_epoch": 136,
        "meta_bstar": 0.00020328778,
        "meta_mean_motion_dot": 2.806e-05,
        "meta_mean_motion_ddot": 0,
        "tle_line1": "1 66997U 25292E   25353.25710550  .00002806  00000+0  20329-3 0  9994",
        "tle_line2": "2 66997  97.6543  65.7496 0013487 252.5124 107.4629 15.04723396  1363"
      },
      "geometry": {
        "type": "Point",
        "coordinates": [
          -109.2497773803262,
          31.049149510368753
        ]
      }
    }
  ]
}